{"type": "FeatureCollection", "features": [ {"type": "Feature", "properties": {"norad_id": 42741, "name": "EUTELSAT 172B", "group": "eutelsat", "lat": 0.0002257748752176028, "lon": 5.705038256389677, "alt_km": 35786.16870631746, "timestamp": "2025-12-09T07:41:32.874994+00:00", "meta": {"OBJECT_NAME": "EUTELSAT 172B", "OBJECT_ID": "2017-029B", "EPOCH": "2025-12-08T20:03:38.651328", "MEAN_MOTION": 1.00270561, "ECCENTRICITY": 1.62e-05, "INCLINATION": 0.0129, "RA_OF_ASC_NODE": 88.9406, "ARG_OF_PERICENTER": 207.2634, "MEAN_ANOMALY": 254.5512, "EPHEMERIS_TYPE": 0, "CLASSIFICATION_TYPE": "U", "NORAD_CAT_ID": 42741, "ELEMENT_SET_NO": 999, "REV_AT_EPOCH": 3182, "BSTAR": 0, "MEAN_MOTION_DOT": -4e-08, "MEAN_MOTION_DDOT": 0}, "tle": {"line1": "1 42741U 17029B   25342.83586402 -.00000004  00000+0  00000+0 0  9992", "line2": "2 42741   0.0129  88.9406 0000162 207.2634 254.5512  1.00270561 31820"}}, "geometry": {"type": "Point", "coordinates": [5.705038256389677, 0.0002257748752176028]}}, {"type": "Feature", "properties": {"norad_id": 44334, "name": "EUTELSAT 7C", "group": "eutelsat", "lat": 0.009374466029041264, "lon": -159.34873465520752, "alt_km": 35774.683228206304, "timestamp": "2025-12-09T07:41:32.875006+00:00", "meta": {"OBJECT_NAME": "EUTELSAT 7C", "OBJECT_ID": "2019-034B", "EPOCH": "2025-12-08T13:37:59.577024", "MEAN_MOTION": 1.00270644, "ECCENTRICITY": 0.0003493, "INCLINATION": 0.0737, "RA_OF_ASC_NODE": 179.6012, "ARG_OF_PERICENTER": 58.7605, "MEAN_ANOMALY": 50.69, "EPHEMERIS_TYPE": 0, "CLASSIFICATION_TYPE": "U", "NORAD_CAT_ID": 44334, "ELEMENT_SET_NO": 999, "REV_AT_EPOCH": 492, "BSTAR": 0, "MEAN_MOTION_DOT": 5e-07, "MEAN_MOTION_DDOT": 0}, "tle": {"line1": "1 44334U 19034B   25342.56805066  .00000050  00000+0  00000+0 0  9990", "line2": "2 44334   0.0737 179.6012 0003493  58.7605  50.6900  1.00270644  4922"}}, "geometry": {"type": "Point", "coordinates": [-159.34873465520752, 0.009374466029041264]}}, {"type": "Feature", "properties": {"norad_id": 44624, "name": "EUTELSAT 5 WEST B", "group": "eutelsat", "lat": -0.03934705290387739, "lon": -171.3421053463892, "alt_km": 35781.23226048037, "timestamp": "2025-12-09T07:41:32.875018+00:00", "meta": {"OBJECT_NAME": "EUTELSAT 5 WEST B", "OBJECT_ID": "2019-067A", "EPOCH": "2025-12-08T22:08:22.438752", "MEAN_MOTION": 1.00270995, "ECCENTRICITY": 0.00035282, "INCLINATION": 0.0644, "RA_OF_ASC_NODE": 340.9663, "ARG_OF_PERICENTER": 277.8642, "MEAN_ANOMALY": 146.1846, "EPHEMERIS_TYPE": 0, "CLASSIFICATION_TYPE": "U", "NORAD_CAT_ID": 44624, "ELEMENT_SET_NO": 999, "REV_AT_EPOCH": 2252, "BSTAR": 0, "MEAN_MOTION_DOT": -4e-07, "MEAN_MOTION_DDOT": 0}, "tle": {"line1": "1 44624U 19067A   25342.92248193 -.00000040  00000+0  00000+0 0  9990", "line2": "2 44624   0.0644 340.9663 0003528 277.8642 146.1846  1.00270995 22525"}}, "geometry": {"type": "Point", "coordinates": [-171.3421053463892, -0.03934705290387739]}}, {"type": "Feature", "properties": {"norad_id": 45027, "name": "EUTELSAT KONNECT", "group": "eutelsat", "lat": 0.05408655497027551, "lon": -159.1193962583293, "alt_km": 35782.716701134705, "timestamp": "2025-12-09T07:41:32.875029+00:00", "meta": {"OBJECT_NAME": "EUTELSAT KONNECT", "OBJECT_ID": "2020-005B", "EPOCH": "2025-12-08T15:20:57.216768", "MEAN_MOTION": 1.00272826, "ECCENTRICITY": 0.0001645, "INCLINATION": 0.0714, "RA_OF_ASC_NODE": 97.9851, "ARG_OF_PERICENTER": 167.2799, "MEAN_ANOMALY": 49.8134, "EPHEMERIS_TYPE": 0, "CLASSIFICATION_TYPE": "U", "NORAD_CAT_ID": 45027, "ELEMENT_SET_NO": 999, "REV_AT_EPOCH": 2242, "BSTAR": 0, "MEAN_MOTION_DOT": 5.2e-07, "MEAN_MOTION_DDOT": 0}, "tle": {"line1": "1 45027U 20005B   25342.63955112  .00000052  00000+0  00000+0 0  9998", "line2": "2 45027   0.0714  97.9851 0001645 167.2799  49.8134  1.00272826 22425"}}, "geometry": {"type": "Point", "coordinates": [-159.1193962583293, 0.05408655497027551]}}, {"type": "Feature", "properties": {"norad_id": 49056, "name": "EUTELSAT QUANTUM", "group": "eutelsat", "lat": -0.027417555471150955, "lon": -118.62958582691451, "alt_km": 35773.19468386511, "timestamp": "2025-12-09T07:41:32.875042+00:00", "meta": {"OBJECT_NAME": "EUTELSAT QUANTUM", "OBJECT_ID": "2021-069B", "EPOCH": "2025-12-08T22:01:38.706240", "MEAN_MOTION": 1.00269257, "ECCENTRICITY": 0.00037286, "INCLINATION": 0.0122, "RA_OF_ASC_NODE": 10.7312, "ARG_OF_PERICENTER": 261.56, "MEAN_ANOMALY": 183.7356, "EPHEMERIS_TYPE": 0, "CLASSIFICATION_TYPE": "U", "NORAD_CAT_ID": 49056, "ELEMENT_SET_NO": 999, "REV_AT_EPOCH": 1602, "BSTAR": 0, "MEAN_MOTION_DOT": 1.28e-06, "MEAN_MOTION_DDOT": 0}, "tle": {"line1": "1 49056U 21069B   25342.91780910  .00000128  00000+0  00000+0 0  9992", "line2": "2 49056   0.0122  10.7312 0003728 261.5600 183.7356  1.00269257 16029"}}, "geometry": {"type": "Point", "coordinates": [-118.62958582691451, -0.027417555471150955]}}, {"type": "Feature", "properties": {"norad_id": 53765, "name": "EUTELSAT KONNECT VHTS", "group": "eutelsat", "lat": 0.04726253872971648, "lon": -163.61672709627916, "alt_km": 35778.14079819549, "timestamp": "2025-12-09T07:41:32.875053+00:00", "meta": {"OBJECT_NAME": "EUTELSAT KONNECT VHTS", "OBJECT_ID": "2022-110A", "EPOCH": "2025-12-08T22:10:37.222752", "MEAN_MOTION": 1.00270612, "ECCENTRICITY": 0.00026288, "INCLINATION": 0.0628, "RA_OF_ASC_NODE": 103.3436, "ARG_OF_PERICENTER": 135.0105, "MEAN_ANOMALY": 174.9318, "EPHEMERIS_TYPE": 0, "CLASSIFICATION_TYPE": "U", "NORAD_CAT_ID": 53765, "ELEMENT_SET_NO": 999, "REV_AT_EPOCH": 491, "BSTAR": 0, "MEAN_MOTION_DOT": 1.9e-07, "MEAN_MOTION_DDOT": 0}, "tle": {"line1": "1 53765U 22110A   25342.92404193  .00000019  00000+0  00000+0 0  9998", "line2": "2 53765   0.0628 103.3436 0002628 135.0105 174.9318  1.00270612  4913"}}, "geometry": {"type": "Point", "coordinates": [-163.61672709627916, 0.04726253872971648]}}, {"type": "Feature", "properties": {"norad_id": 54048, "name": "EUTELSAT HOTBIRD 13F", "group": "eutelsat", "lat": -0.06017152292088753, "lon": -153.2998541201709, "alt_km": 35793.33015636915, "timestamp": "2025-12-09T07:41:32.875065+00:00", "meta": {"OBJECT_NAME": "EUTELSAT HOTBIRD 13F", "OBJECT_ID": "2022-134A", "EPOCH": "2025-12-08T15:22:42.049344", "MEAN_MOTION": 1.00271424, "ECCENTRICITY": 0.0002045, "INCLINATION": 0.0486, "RA_OF_ASC_NODE": 292.2851, "ARG_OF_PERICENTER": 61.4058, "MEAN_ANOMALY": 327.6443, "EPHEMERIS_TYPE": 0, "CLASSIFICATION_TYPE": "U", "NORAD_CAT_ID": 54048, "ELEMENT_SET_NO": 999, "REV_AT_EPOCH": 1146, "BSTAR": 0, "MEAN_MOTION_DOT": 8.9e-07, "MEAN_MOTION_DDOT": 0}, "tle": {"line1": "1 54048U 22134A   25342.64076446  .00000089  00000+0  00000+0 0  9991", "line2": "2 54048   0.0486 292.2851 0002045  61.4058 327.6443  1.00271424 11467"}}, "geometry": {"type": "Point", "coordinates": [-153.2998541201709, -0.06017152292088753]}}, {"type": "Feature", "properties": {"norad_id": 54225, "name": "EUTELSAT HOTBIRD 13G", "group": "eutelsat", "lat": -0.03555631218415256, "lon": -153.30292808569874, "alt_km": 35778.901440645095, "timestamp": "2025-12-09T07:41:32.875077+00:00", "meta": {"OBJECT_NAME": "EUTELSAT HOTBIRD 13G", "OBJECT_ID": "2022-146A", "EPOCH": "2025-12-08T15:22:42.049344", "MEAN_MOTION": 1.00270657, "ECCENTRICITY": 0.0001883, "INCLINATION": 0.0488, "RA_OF_ASC_NODE": 235.9302, "ARG_OF_PERICENTER": 310.6832, "MEAN_ANOMALY": 134.7005, "EPHEMERIS_TYPE": 0, "CLASSIFICATION_TYPE": "U", "NORAD_CAT_ID": 54225, "ELEMENT_SET_NO": 999, "REV_AT_EPOCH": 555, "BSTAR": 0, "MEAN_MOTION_DOT": 8.9e-07, "MEAN_MOTION_DDOT": 0}, "tle": {"line1": "1 54225U 22146A   25342.64076446  .00000089  00000+0  00000+0 0  9991", "line2": "2 54225   0.0488 235.9302 0001883 310.6832 134.7005  1.00270657  5550"}}, "geometry": {"type": "Point", "coordinates": [-153.30292808569874, -0.03555631218415256]}}, {"type": "Feature", "properties": {"norad_id": 54259, "name": "EUTELSAT 10B", "group": "eutelsat", "lat": 0.043182566541067995, "lon": -156.32779915460725, "alt_km": 35783.6625047088, "timestamp": "2025-12-09T07:41:32.875089+00:00", "meta": {"OBJECT_NAME": "EUTELSAT 10B", "OBJECT_ID": "2022-157A", "EPOCH": "2025-12-08T21:44:38.781888", "MEAN_MOTION": 1.00268802, "ECCENTRICITY": 8.508e-05, "INCLINATION": 0.0629, "RA_OF_ASC_NODE": 99.3292, "ARG_OF_PERICENTER": 78.5911, "MEAN_ANOMALY": 236.1215, "EPHEMERIS_TYPE": 0, "CLASSIFICATION_TYPE": "U", "NORAD_CAT_ID": 54259, "ELEMENT_SET_NO": 999, "REV_AT_EPOCH": 1111, "BSTAR": 0, "MEAN_MOTION_DOT": 7e-07, "MEAN_MOTION_DDOT": 0}, "tle": {"line1": "1 54259U 22157A   25342.90600442  .00000070  00000+0  00000+0 0  9998", "line2": "2 54259   0.0629  99.3292 0000850  78.5911 236.1215  1.00268802 11113"}}, "geometry": {"type": "Point", "coordinates": [-156.32779915460725, 0.043182566541067995]}}, {"type": "Feature", "properties": {"norad_id": 59346, "name": "EUTELSAT 36D", "group": "eutelsat", "lat": -0.01447939019407197, "lon": -130.44490805076478, "alt_km": 35786.48242590885, "timestamp": "2025-12-09T07:41:32.875105+00:00", "meta": {"OBJECT_NAME": "EUTELSAT 36D", "OBJECT_ID": "2024-059A", "EPOCH": "2025-12-08T22:20:06.315360", "MEAN_MOTION": 1.00269127, "ECCENTRICITY": 3.953e-05, "INCLINATION": 0.001, "RA_OF_ASC_NODE": 17.2851, "ARG_OF_PERICENTER": 292.2542, "MEAN_ANOMALY": 139.2824, "EPHEMERIS_TYPE": 0, "CLASSIFICATION_TYPE": "U", "NORAD_CAT_ID": 59346, "ELEMENT_SET_NO": 999, "REV_AT_EPOCH": 624, "BSTAR": 0, "MEAN_MOTION_DOT": 1.58e-06, "MEAN_MOTION_DDOT": 0}, "tle": {"line1": "1 59346U 24059A   25342.93062865  .00000158  00000+0  00000+0 0  9994", "line2": "2 59346   0.0010  17.2851 0000395 292.2542 139.2824  1.00269127  6246"}}, "geometry": {"type": "Point", "coordinates": [-130.44490805076478, -0.01447939019407197]}}]}